QIANFAN-25              
1 61558U 24185G   25343.16410499  .00000639  00000+0  38211-3 0  9991
2 61558  88.9809  78.5938 0008324 334.8109  25.2666 14.05903759 69009
QIANFAN-26              
1 61559U 24185H   25343.19005455  .00000408  00000+0  39500-3 0  9993
2 61559  88.9813  80.1331 0006234  40.5515 319.6114 13.77810024 68187
QIANFAN-27              
1 61560U 24185J   25343.17315120  .00000942  00000+0  37919-3 0  9991
2 61560  88.9806  77.3611 0005873 309.7140  50.3536 14.27326254 69655
QIANFAN-28              
1 61561U 24185K   25343.15708353  .00001453  00000+0  57999-3 0  9992
2 61561  88.9824  77.3659 0005213 309.1649  50.9081 14.28023345 69662
QIANFAN-29              
1 61562U 24185L   25343.18404249  .00000259  00000+0  38265-3 0  9991
2 61562  88.9790  81.6773 0011403  68.1690 292.0673 13.51009194 67313
QIANFAN-30              
1 61563U 24185M   25343.15618657  .00000185  00000+0  27188-3 0  9999
2 61563  88.9810  81.2042 0008707  57.8126 302.3867 13.49987298 67580
QIANFAN-31              
1 61564U 24185N   25343.14565142  .00000300  00000+0  39814-3 0  9997
2 61564  88.9794  81.0131 0007949  53.6430 306.5458 13.57964285 67670
QIANFAN-32              
1 61565U 24185P   25343.20070009  .00000263  00000+0  39027-3 0  9992
2 61565  88.9853  81.3327 0011061  78.6717 281.5677 13.50734020 67560
